NORAD_CAT_ID,OBJECT_NAME,OBJECT_TYPE,EPOCH,MEAN_MOTION,ECCENTRICITY,INCLINATION,RA_OF_ASC_NODE,ARG_OF_PERICENTER,MEAN_ANOMALY,BSTAR,MEAN_MOTION_DOT,MEAN_MOTION_DDOT,TLE_LINE0,TLE_LINE1,TLE_LINE2,SEMIMAJOR_AXIS,PERIOD,APOGEE,PERIGEE,DECAYED
49165.0,STARLINK-3052,PAYLOAD,2024-04-14 18:27:30,14.98334241,0.0002735,70.0012,244.0882,261.3967,98.6882,5.0498e-05,5.1e-06,0.0,0 STARLINK-3052,1 49165U 21082AM  24105.76910240  .00000510  00000-0  50498-4 0  9995,2 49165  70.0012 244.0882 0002735 261.3967  98.6882 14.98334241143239,6950.18,96.107,573.946,570.144,0.0
49165.0,STARLINK-3052,PAYLOAD,2024-04-15 12:04:59,14.98332526,0.0002724,70.0014,242.2367,260.1382,99.947,4.6111e-05,4.57e-06,0.0,0 STARLINK-3052,1 49165U 21082AM  24106.50346198  .00000457  00000-0  46111-4 0  9990,2 49165  70.0014 242.2367 0002724 260.1382  99.9470 14.98332526143359,6950.185,96.107,573.943,570.157,0.0
49165.0,STARLINK-3052,PAYLOAD,2024-04-15 13:41:07,14.98332564,0.0002725,70.0014,242.0684,260.0567,100.0285,4.5784e-05,4.53e-06,0.0,0 STARLINK-3052,1 49165U 21082AM  24106.57022186  .00000453  00000-0  45784-4 0  9996,2 49165  70.0014 242.0684 0002725 260.0567 100.0285 14.98332564143354,6950.185,96.107,573.944,570.156,0.0
49165.0,STARLINK-3052,PAYLOAD,2024-04-16 12:06:59,14.98323727,0.0002459,70.0009,239.7102,248.7837,111.3059,-0.00015479,-1.939e-05,0.0,0 STARLINK-3052,1 49165U 21082AM  24107.50485943 -.00001939  00000-0 -15479-3 0  9993,2 49165  70.0009 239.7102 0002459 248.7837 111.3059 14.98323727143505,6950.212,96.107,573.786,570.368,0.0
49165.0,STARLINK-3052,PAYLOAD,2024-04-16 15:19:15,14.98329227,0.0002729,70.001,239.3737,269.5684,90.5162,-8.3363e-05,-1.087e-05,0.0,0 STARLINK-3052,1 49165U 21082AM  24107.63837506 -.00001087  00000-0 -83363-4 0  9995,2 49165  70.0010 239.3737 0002729 269.5684  90.5162 14.98329227143513,6950.195,96.107,573.957,570.164,0.0
49165.0,STARLINK-3052,PAYLOAD,2024-04-16 18:31:31,14.9832695,0.0002693,70.0012,239.0378,266.3492,93.7359,-0.00010279,-1.319e-05,0.0,0 STARLINK-3052,1 49165U 21082AM  24107.77189587 -.00001319  00000-0 -10279-3 0  9992,2 49165  70.0012 239.0378 0002693 266.3492  93.7359 14.98326950143530,6950.202,96.107,573.939,570.196,0.0
49165.0,STARLINK-3052,PAYLOAD,2024-04-17 12:09:02,14.98310004,0.0002185,70.003,237.1888,245.4563,114.6368,-0.00020647,-2.554e-05,0.0,0 STARLINK-3052,1 49165U 21082AM  24108.50627394 -.00002554  00000-0 -20647-3 0  9999,2 49165  70.0030 237.1888 0002185 245.4563 114.6368 14.98310004143657,6950.255,96.108,573.638,570.601,0.0
49165.0,STARLINK-3052,PAYLOAD,2024-04-17 13:45:10,14.98309751,0.0002173,70.0029,237.0204,244.0545,116.039,-0.00020762,-2.568e-05,0.0,0 STARLINK-3052,1 49165U 21082AM  24108.57303498 -.00002568  00000-0 -20762-3 0  9995,2 49165  70.0029 237.0204 0002173 244.0545 116.0390 14.98309751143656,6950.256,96.108,573.631,570.61,0.0
49165.0,STARLINK-3052,PAYLOAD,2024-04-17 16:57:26,14.98310035,0.0002164,70.0029,236.6839,242.7318,117.3621,-0.00019954,-2.472e-05,0.0,0 STARLINK-3052,1 49165U 21082AM  24108.70655610 -.00002472  00000-0 -19954-3 0  9991,2 49165  70.0029 236.6839 0002164 242.7318 117.3621 14.98310035143678,6950.255,96.108,573.624,570.616,0.0
49165.0,STARLINK-3052,PAYLOAD,2024-04-18 12:11:01,14.98346706,0.000305,70.0006,234.6615,267.1353,92.9457,-0.00032817,-4.008e-05,0.0,0 STARLINK-3052,1 49165U 21082AM  24109.50765612 -.00004008  00000-0 -32817-3 0  9994,2 49165  70.0006 234.6615 0003050 267.1353  92.9457 14.98346706143802,6950.141,96.106,574.126,569.886,0.0
49165.0,STARLINK-3052,PAYLOAD,2024-04-18 13:47:09,14.98355891,0.0002875,70.0006,234.4935,273.3884,86.6946,-0.00050577,-6.126e-05,0.0,0 STARLINK-3052,1 49165U 21082AM  24109.57441424 -.00006126  00000-0 -50577-3 0  9999,2 49165  70.0006 234.4935 0002875 273.3884  86.6946 14.98355891143805,6950.113,96.105,573.976,569.98,0.0
49165.0,STARLINK-3052,PAYLOAD,2024-04-18 18:35:32,14.98356144,0.0002883,70.0012,233.9891,264.7896,95.2934,-0.00021874,-2.704e-05,0.0,0 STARLINK-3052,1 49165U 21082AM  24109.77468472 -.00002704  00000-0 -21874-3 0  9999,2 49165  70.0012 233.9891 0002883 264.7896  95.2934 14.98356144143842,6950.112,96.105,573.981,569.973,0.0
49165.0,STARLINK-3052,PAYLOAD,2024-04-19 12:13:03,14.98318332,0.0002134,70.0026,232.1382,252.8212,107.2713,0.00030783,3.581e-05,0.0,0 STARLINK-3052,1 49165U 21082AM  24110.50906723  .00003581  00000-0  30783-3 0  9999,2 49165  70.0026 232.1382 0002134 252.8212 107.2713 14.98318332143950,6950.229,96.108,573.577,570.611,0.0
49165.0,STARLINK-3052,PAYLOAD,2024-04-19 13:49:11,14.98317945,0.0002219,70.0024,231.9699,251.4563,108.6355,0.00029175,3.389e-05,0.0,0 STARLINK-3052,1 49165U 21082AM  24110.57582807  .00003389  00000-0  29175-3 0  9998,2 49165  70.0024 231.9699 0002219 251.4563 108.6355 14.98317945143950,6950.23,96.108,573.637,570.553,0.0
49165.0,STARLINK-3052,PAYLOAD,2024-04-19 17:01:27,14.98328008,0.0002629,70.002,231.6359,247.0005,113.0877,0.00035332,4.125e-05,0.0,0 STARLINK-3052,1 49165U 21082AM  24110.70934046  .00004125  00000-0  35332-3 0  9990,2 49165  70.0020 231.6359 0002629 247.0005 113.0877 14.98328008143987,6950.199,96.107,573.891,570.237,0.0
49165.0,STARLINK-3052,PAYLOAD,2024-04-20 13:51:11,14.98341322,0.0002236,70.0029,229.4475,245.1544,114.9383,0.00015148,1.715e-05,0.0,0 STARLINK-3052,1 49165U 21082AM  24111.57721498  .00001715  00000-0  15148-3 0  9996,2 49165  70.0029 229.4475 0002236 245.1544 114.9383 14.98341322144102,6950.158,96.106,573.577,570.469,0.0
49165.0,STARLINK-3052,PAYLOAD,2024-04-20 17:03:27,14.9833929,0.0002443,70.0026,229.1096,255.4923,104.5965,0.00017684,2.018e-05,0.0,0 STARLINK-3052,1 49165U 21082AM  24111.71073592  .00002018  00000-0  17684-3 0  9991,2 49165  70.0026 229.1096 0002443 255.4923 104.5965 14.98339290144135,6950.164,96.106,573.727,570.331,0.0
49165.0,STARLINK-3052,PAYLOAD,2024-04-21 13:53:13,14.98318905,0.0002462,70.0031,226.9218,224.9983,135.0977,-1.681e-05,-2.93e-06,0.0,0 STARLINK-3052,1 49165U 21082AM  24112.57863138 -.00000293  00000-0 -16810-4 0  9995,2 49165  70.0031 226.9218 0002462 224.9983 135.0977 14.98318905144255,6950.227,96.108,573.803,570.381,0.0
49165.0,STARLINK-3052,PAYLOAD,2024-04-21 17:05:29,14.983279,0.0002463,70.0021,226.5835,278.3261,81.7619,7.0179e-05,7.44e-06,0.0,0 STARLINK-3052,1 49165U 21082AM  24112.71214714  .00000744  00000-0  70179-4 0  9998,2 49165  70.0021 226.5835 0002463 278.3261  81.7619 14.98327900144275,6950.199,96.107,573.776,570.353,0.0
49165.0,STARLINK-3052,PAYLOAD,2024-04-22 10:42:58,14.98326473,0.0002729,70.0021,224.7335,266.0668,94.0179,-5.3837e-05,-7.35e-06,0.0,0 STARLINK-3052,1 49165U 21082AM  24113.44651071 -.00000735  00000-0 -53837-4 0  9994,2 49165  70.0021 224.7335 0002729 266.0668  94.0179 14.98326473144395,6950.204,96.107,573.966,570.172,0.0
49165.0,STARLINK-3052,PAYLOAD,2024-04-22 17:07:29,14.98338143,0.0002134,70.0025,224.0603,260.9244,99.1674,8.3018e-05,8.98e-06,0.0,0 STARLINK-3052,1 49165U 21082AM  24113.71353995  .00000898  00000-0  83018-4 0  9990,2 49165  70.0025 224.0603 0002134 260.9244  99.1674 14.98338143144431,6950.168,96.106,573.516,570.55,0.0
49165.0,STARLINK-3052,PAYLOAD,2024-04-23 12:21:07,14.98317507,0.0002174,70.0029,222.0392,241.6732,118.4208,0.00026843,3.11e-05,0.0,0 STARLINK-3052,1 49165U 21082AM  24114.51467071  .00003110  00000-0  26843-3 0  9992,2 49165  70.0029 222.0392 0002174 241.6732 118.4208 14.98317507144552,6950.232,96.108,573.608,570.586,0.0
49165.0,STARLINK-3052,PAYLOAD,2024-04-23 13:57:15,14.98318097,0.0002108,70.0029,221.8705,239.9922,120.1028,0.00026203,3.034e-05,0.0,0 STARLINK-3052,1 49165U 21082AM  24114.58143061  .00003034  00000-0  26203-3 0  9994,2 49165  70.0029 221.8705 0002108 239.9922 120.1028 14.98318097144550,6950.23,96.108,573.56,570.63,0.0
49165.0,STARLINK-3052,PAYLOAD,2024-04-23 17:09:31,14.98324218,0.0002242,70.0032,221.5353,231.5678,128.528,0.00026587,3.08e-05,0.0,0 STARLINK-3052,1 49165U 21082AM  24114.71494664  .00003080  00000-0  26587-3 0  9993,2 49165  70.0032 221.5353 0002242 231.5678 128.5280 14.98324218144571,6950.211,96.107,573.634,570.518,0.0
49165.0,STARLINK-3052,PAYLOAD,2024-04-24 10:46:59,14.9836047,0.0001665,70.0031,219.6835,237.0324,123.0675,-0.00048713,-5.904e-05,0.0,0 STARLINK-3052,1 49165U 21082AM  24115.44930386 -.00005904  00000-0 -48713-3 0  9994,2 49165  70.0031 219.6835 0001665 237.0324 123.0675 14.98360470144691,6950.099,96.105,573.121,570.806,0.0
49165.0,STARLINK-3052,PAYLOAD,2024-04-24 13:59:16,14.98348284,0.0001717,70.0029,219.3468,235.8795,124.2201,-0.0003111,-3.804e-05,0.0,0 STARLINK-3052,1 49165U 21082AM  24115.58282593 -.00003804  00000-0 -31110-3 0  9999,2 49165  70.0029 219.3468 0001717 235.8795 124.2201 14.98348284144702,6950.136,96.106,573.195,570.808,0.0
49165.0,STARLINK-3052,PAYLOAD,2024-04-24 17:11:31,14.98365979,0.0001804,70.0024,219.0097,247.787,112.3098,-0.00055258,-6.686e-05,0.0,0 STARLINK-3052,1 49165U 21082AM  24115.71633715 -.00006686  00000-0 -55258-3 0  9990,2 49165  70.0024 219.0097 0001804 247.7870 112.3098 14.98365979144729,6950.082,96.105,573.2,570.693,0.0
49165.0,STARLINK-3052,PAYLOAD,2024-04-25 12:25:09,14.98328124,0.0002408,70.0025,216.9904,258.5041,101.5847,3.0002e-05,2.65e-06,0.0,0 STARLINK-3052,1 49165U 21082AM  24116.51747047  .00000265  00000-0  30002-4 0  9999,2 49165  70.0025 216.9904 0002408 258.5041 101.5847 14.98328124144851,6950.199,96.107,573.737,570.39,0.0
49165.0,STARLINK-3052,PAYLOAD,2024-04-25 14:01:17,14.98328926,0.000238,70.0026,216.8223,255.9039,104.1856,3.7088e-05,3.5e-06,0.0,0 STARLINK-3052,1 49165U 21082AM  24116.58422960  .00000350  00000-0  37088-4 0  9996,2 49165  70.0026 216.8223 0002380 255.9039 104.1856 14.98328926144851,6950.196,96.107,573.715,570.407,0.0
49165.0,STARLINK-3052,PAYLOAD,2024-04-25 15:37:25,14.98330549,0.0002352,70.0025,216.6539,255.0553,105.0346,5.1072e-05,5.17e-06,0.0,0 STARLINK-3052,1 49165U 21082AM  24116.65098814  .00000517  00000-0  51072-4 0  9995,2 49165  70.0025 216.6539 0002352 255.0553 105.0346 14.98330549144868,6950.191,96.107,573.691,570.422,0.0
